[{"OBJECT_NAME":"ISS (ZARYA)","OBJECT_ID":"1998-067A","EPOCH":"2026-04-14T20:15:54.268704","MEAN_MOTION":15.48918397,"ECCENTRICITY":0.0006504,"INCLINATION":51.6321,"RA_OF_ASC_NODE":253.5853,"ARG_OF_PERICENTER":313.265,"MEAN_ANOMALY":46.7795,"EPHEMERIS_TYPE":0,"CLASSIFICATION_TYPE":"U","NORAD_CAT_ID":25544,"ELEMENT_SET_NO":999,"REV_AT_EPOCH":56193,"BSTAR":0.00013466,"MEAN_MOTION_DOT":6.957e-5,"MEAN_MOTION_DDOT":0},{"OBJECT_NAME":"POISK","OBJECT_ID":"2009-060A","EPOCH":"2026-04-14T20:15:54.268704","MEAN_MOTION":15.48918397,"ECCENTRICITY":0.0006504,"INCLINATION":51.6321,"RA_OF_ASC_NODE":253.5853,"ARG_OF_PERICENTER":313.265,"MEAN_ANOMALY":46.7795,"EPHEMERIS_TYPE":0,"CLASSIFICATION_TYPE":"U","NORAD_CAT_ID":36086,"ELEMENT_SET_NO":999,"REV_AT_EPOCH":56180,"BSTAR":0.00013466,"MEAN_MOTION_DOT":6.957e-5,"MEAN_MOTION_DDOT":0},{"OBJECT_NAME":"CSS (TIANHE)","OBJECT_ID":"2021-035A","EPOCH":"2026-04-14T20:23:57.351840","MEAN_MOTION":15.62394233,"ECCENTRICITY":0.0005562,"INCLINATION":41.4685,"RA_OF_ASC_NODE":347.8435,"ARG_OF_PERICENTER":209.4927,"MEAN_ANOMALY":150.5599,"EPHEMERIS_TYPE":0,"CLASSIFICATION_TYPE":"U","NORAD_CAT_ID":48274,"ELEMENT_SET_NO":999,"REV_AT_EPOCH":28326,"BSTAR":0.00017964,"MEAN_MOTION_DOT":0.00016086,"MEAN_MOTION_DDOT":0},{"OBJECT_NAME":"ISS (NAUKA)","OBJECT_ID":"2021-066A","EPOCH":"2026-04-14T20:15:54.268704","MEAN_MOTION":15.48918397,"ECCENTRICITY":0.0006504,"INCLINATION":51.6321,"RA_OF_ASC_NODE":253.5853,"ARG_OF_PERICENTER":313.265,"MEAN_ANOMALY":46.7795,"EPHEMERIS_TYPE":0,"CLASSIFICATION_TYPE":"U","NORAD_CAT_ID":49044,"ELEMENT_SET_NO":999,"REV_AT_EPOCH":56184,"BSTAR":0.00013466,"MEAN_MOTION_DOT":6.957e-5,"MEAN_MOTION_DDOT":0},{"OBJECT_NAME":"FREGAT DEB","OBJECT_ID":"2011-037PF","EPOCH":"2026-04-14T06:58:38.322912","MEAN_MOTION":12.40989563,"ECCENTRICITY":0.0948239,"INCLINATION":51.6418,"RA_OF_ASC_NODE":193.8365,"ARG_OF_PERICENTER":141.0354,"MEAN_ANOMALY":226.2877,"EPHEMERIS_TYPE":0,"CLASSIFICATION_TYPE":"U","NORAD_CAT_ID":49271,"ELEMENT_SET_NO":999,"REV_AT_EPOCH":21711,"BSTAR":9.4244e-5,"MEAN_MOTION_DOT":-4.1e-7,"MEAN_MOTION_DDOT":0},{"OBJECT_NAME":"CSS (WENTIAN)","OBJECT_ID":"2022-085A","EPOCH":"2026-04-14T17:21:46.251072","MEAN_MOTION":15.62591629,"ECCENTRICITY":0.0005439,"INCLINATION":41.4681,"RA_OF_ASC_NODE":348.6338,"ARG_OF_PERICENTER":220.8114,"MEAN_ANOMALY":139.2319,"EPHEMERIS_TYPE":0,"CLASSIFICATION_TYPE":"U","NORAD_CAT_ID":53239,"ELEMENT_SET_NO":999,"REV_AT_EPOCH":28358,"BSTAR":0.00037528,"MEAN_MOTION_DOT":0.00034329,"MEAN_MOTION_DDOT":0},{"OBJECT_NAME":"CSS (MENGTIAN)","OBJECT_ID":"2022-143A","EPOCH":"2026-04-14T20:23:57.351840","MEAN_MOTION":15.62394233,"ECCENTRICITY":0.0005562,"INCLINATION":41.4685,"RA_OF_ASC_NODE":347.8435,"ARG_OF_PERICENTER":209.4927,"MEAN_ANOMALY":150.5599,"EPHEMERIS_TYPE":0,"CLASSIFICATION_TYPE":"U","NORAD_CAT_ID":54216,"ELEMENT_SET_NO":999,"REV_AT_EPOCH":28382,"BSTAR":0.00017964,"MEAN_MOTION_DOT":0.00016086,"MEAN_MOTION_DDOT":0},{"OBJECT_NAME":"TIANZHOU-9","OBJECT_ID":"2025-149A","EPOCH":"2026-04-14T20:23:57.351840","MEAN_MOTION":15.62394233,"ECCENTRICITY":0.0005562,"INCLINATION":41.4685,"RA_OF_ASC_NODE":347.8435,"ARG_OF_PERICENTER":209.4927,"MEAN_ANOMALY":150.5599,"EPHEMERIS_TYPE":0,"CLASSIFICATION_TYPE":"U","NORAD_CAT_ID":64786,"ELEMENT_SET_NO":999,"REV_AT_EPOCH":28382,"BSTAR":0.00017964,"MEAN_MOTION_DOT":0.00016086,"MEAN_MOTION_DDOT":0},{"OBJECT_NAME":"PROGRESS-MS 32","OBJECT_ID":"2025-204A","EPOCH":"2026-04-14T12:31:22.172160","MEAN_MOTION":15.4891336,"ECCENTRICITY":0.00064948,"INCLINATION":51.6319,"RA_OF_ASC_NODE":255.1813,"ARG_OF_PERICENTER":311.8952,"MEAN_ANOMALY":48.1482,"EPHEMERIS_TYPE":0,"CLASSIFICATION_TYPE":"U","NORAD_CAT_ID":65586,"ELEMENT_SET_NO":999,"REV_AT_EPOCH":55450,"BSTAR":0.00012575075,"MEAN_MOTION_DOT":6.465e-5,"MEAN_MOTION_DDOT":0},{"OBJECT_NAME":"YOTSUBA-KULOVER","OBJECT_ID":"1998-067XN","EPOCH":"2026-04-13T17:08:29.415840","MEAN_MOTION":16.17114625,"ECCENTRICITY":0.0012446,"INCLINATION":51.6097,"RA_OF_ASC_NODE":232.2959,"ARG_OF_PERICENTER":317.1946,"MEAN_ANOMALY":42.81,"EPHEMERIS_TYPE":0,"CLASSIFICATION_TYPE":"U","NORAD_CAT_ID":65941,"ELEMENT_SET_NO":999,"REV_AT_EPOCH":2908,"BSTAR":0.00097539,"MEAN_MOTION_DOT":0.01582409,"MEAN_MOTION_DDOT":1.1783e-5},{"OBJECT_NAME":"BOTAN","OBJECT_ID":"1998-067XQ","EPOCH":"2026-04-14T14:44:47.450112","MEAN_MOTION":16.13528741,"ECCENTRICITY":0.0012168,"INCLINATION":51.6128,"RA_OF_ASC_NODE":227.8385,"ARG_OF_PERICENTER":320.4855,"MEAN_ANOMALY":39.5272,"EPHEMERIS_TYPE":0,"CLASSIFICATION_TYPE":"U","NORAD_CAT_ID":65943,"ELEMENT_SET_NO":999,"REV_AT_EPOCH":2922,"BSTAR":0.00085849,"MEAN_MOTION_DOT":0.01058913,"MEAN_MOTION_DDOT":0.00072957},{"OBJECT_NAME":"HRC MONOBLOCK CAMERA","OBJECT_ID":"1998-067XR","EPOCH":"2026-04-14T16:03:01.392768","MEAN_MOTION":15.6626816,"ECCENTRICITY":0.0004043,"INCLINATION":51.6257,"RA_OF_ASC_NODE":243.4015,"ARG_OF_PERICENTER":279.7754,"MEAN_ANOMALY":80.2785,"EPHEMERIS_TYPE":0,"CLASSIFICATION_TYPE":"U","NORAD_CAT_ID":66052,"ELEMENT_SET_NO":999,"REV_AT_EPOCH":2802,"BSTAR":0.00035997,"MEAN_MOTION_DOT":0.00037567,"MEAN_MOTION_DDOT":0},{"OBJECT_NAME":"HTV-X1","OBJECT_ID":"2025-241A","EPOCH":"2026-04-14T18:38:25.940832","MEAN_MOTION":15.32643759,"ECCENTRICITY":0.0007486,"INCLINATION":51.6355,"RA_OF_ASC_NODE":259.0566,"ARG_OF_PERICENTER":312.6087,"MEAN_ANOMALY":47.4262,"EPHEMERIS_TYPE":0,"CLASSIFICATION_TYPE":"U","NORAD_CAT_ID":66174,"ELEMENT_SET_NO":999,"REV_AT_EPOCH":2647,"BSTAR":0.00013918,"MEAN_MOTION_DOT":4.085e-5,"MEAN_MOTION_DDOT":0},{"OBJECT_NAME":"SZ-21 MODULE","OBJECT_ID":"2025-246C","EPOCH":"2026-04-14T09:03:12.457728","MEAN_MOTION":15.71436238,"ECCENTRICITY":0.00044642,"INCLINATION":41.4754,"RA_OF_ASC_NODE":343.2008,"ARG_OF_PERICENTER":270.1131,"MEAN_ANOMALY":89.92,"EPHEMERIS_TYPE":0,"CLASSIFICATION_TYPE":"U","NORAD_CAT_ID":66515,"ELEMENT_SET_NO":999,"REV_AT_EPOCH":2368,"BSTAR":0.00017761477,"MEAN_MOTION_DOT":0.00023082,"MEAN_MOTION_DDOT":0},{"OBJECT_NAME":"SHENZHOU-22","OBJECT_ID":"2025-272A","EPOCH":"2026-04-14T20:23:57.351840","MEAN_MOTION":15.62394233,"ECCENTRICITY":0.0005562,"INCLINATION":41.4685,"RA_OF_ASC_NODE":347.8435,"ARG_OF_PERICENTER":209.4927,"MEAN_ANOMALY":150.5599,"EPHEMERIS_TYPE":0,"CLASSIFICATION_TYPE":"U","NORAD_CAT_ID":66645,"ELEMENT_SET_NO":999,"REV_AT_EPOCH":28382,"BSTAR":0.00017964,"MEAN_MOTION_DOT":0.00016086,"MEAN_MOTION_DDOT":0},{"OBJECT_NAME":"SOYUZ-MS 28","OBJECT_ID":"2025-275A","EPOCH":"2026-04-14T20:15:54.268704","MEAN_MOTION":15.48918397,"ECCENTRICITY":0.0006504,"INCLINATION":51.6321,"RA_OF_ASC_NODE":253.5853,"ARG_OF_PERICENTER":313.265,"MEAN_ANOMALY":46.7795,"EPHEMERIS_TYPE":0,"CLASSIFICATION_TYPE":"U","NORAD_CAT_ID":66664,"ELEMENT_SET_NO":999,"REV_AT_EPOCH":56208,"BSTAR":0.00013466,"MEAN_MOTION_DOT":6.957e-5,"MEAN_MOTION_DDOT":0}]
