ISS (ZARYA)             
1 25544U 98067A   26104.84437811  .00006957  00000+0  13466-3 0  9998
2 25544  51.6321 253.5853 0006504 313.2650  46.7795 15.48918397561933
CSS (TIANHE)            
1 48274U 21035A   26104.84996935  .00016086  00000+0  17964-3 0  9992
2 48274  41.4685 347.8435 0005562 209.4927 150.5599 15.62394233283263
HTV-X1                  
1 66174U 25241A   26104.77668913  .00004085  00000+0  13918-3 0  9999
2 66174  51.6355 259.0566 0007486 312.6087  47.4262 15.32643759 26475
SZ-21 MODULE            
1 66515U 25246C   26104.37722752  .00023082  00000+0  17761-3 0  9999
2 66515  41.4754 343.2008 0004464 270.1131  89.9200 15.71436238 23680
POISK                   
1 36086U 09060A   26104.84437811  .00006957  00000+0  13466-3 0  9996
2 36086  51.6321 253.5853 0006504 313.2650  46.7795 15.48918397561802
ISS (NAUKA)             
1 49044U 21066A   26104.84437811  .00006957  00000+0  13466-3 0  9994
2 49044  51.6321 253.5853 0006504 313.2650  46.7795 15.48918397561844
FREGAT DEB              
1 49271U 11037PF  26104.29072133 -.00000041  00000+0  94244-4 0  9997
2 49271  51.6418 193.8365 0948239 141.0354 226.2877 12.40989563217111
CSS (WENTIAN)           
1 53239U 22085A   26104.72345198  .00034329  00000+0  37528-3 0  9999
2 53239  41.4681 348.6338 0005439 220.8114 139.2319 15.62591629283582
CSS (MENGTIAN)          
1 54216U 22143A   26104.84996935  .00016086  00000+0  17964-3 0  9996
2 54216  41.4685 347.8435 0005562 209.4927 150.5599 15.62394233283828
TIANZHOU-9              
1 64786U 25149A   26104.84996935  .00016086  00000+0  17964-3 0  9998
2 64786  41.4685 347.8435 0005562 209.4927 150.5599 15.62394233283821
PROGRESS-MS 32          
1 65586U 25204A   26104.52178440  .00006465  00000+0  12575-3 0  9990
2 65586  51.6319 255.1813 0006494 311.8952  48.1482 15.48913360554500
YOTSUBA-KULOVER         
1 65941U 98067XN  26103.71422935  .01582409  11783-4  97539-3 0  9999
2 65941  51.6097 232.2959 0012446 317.1946  42.8100 16.17114625 29083
BOTAN                   
1 65943U 98067XQ  26104.61443808  .01058913  72957-3  85849-3 0  9991
2 65943  51.6128 227.8385 0012168 320.4855  39.5272 16.13528741 29223
HRC MONOBLOCK CAMERA    
1 66052U 98067XR  26104.66876612  .00037567  00000+0  35997-3 0  9997
2 66052  51.6257 243.4015 0004043 279.7754  80.2785 15.66268160 28021
SHENZHOU-22             
1 66645U 25272A   26104.84996935  .00016086  00000+0  17964-3 0  9991
2 66645  41.4685 347.8435 0005562 209.4927 150.5599 15.62394233283827
SOYUZ-MS 28             
1 66664U 25275A   26104.84437811  .00006957  00000+0  13466-3 0  9997
2 66664  51.6321 253.5853 0006504 313.2650  46.7795 15.48918397562088
